CTC2_L_00026001-01
1 82958U 23286ZV  26037.47790509  .00000000  00000+0  00000-0 0  9991
2 82958  75.0000   0.0000 0000000   0.0000   0.0000 15.69614506    10
CTC2_L_00026001-02
1 82959U 22963OJ  26037.47790509  .00000000  00000+0  00000-0 0  9993
2 82959  75.0000   0.0000 0000000   0.0000  90.0000 15.69614506    10
CTC2_L_00026001-03
1 82960U 22371GV  26037.47790509  .00000000  00000+0  00000-0 0  9998
2 82960  75.0000   0.0000 0000000   0.0000 180.0000 15.69614506    12
CTC2_L_00026001-04
1 82961U 24711EU  26037.47790509  .00000000  00000+0  00000-0 0  9999
2 82961  75.0000   0.0000 0000000   0.0000 270.0000 15.69614506    13
CTC2_L_00026002-01
1 82962U 24307WO  26037.47790509  .00000000  00000+0  00000-0 0  9991
2 82962  75.0000  12.0000 0000000   0.0000  12.0000 15.69614506    11
CTC2_L_00026002-02
1 82963U 23245JN  26037.47790509  .00000000  00000+0  00000-0 0  9992
2 82963  75.0000  12.0000 0000000   0.0000 102.0000 15.69614506    12
CTC2_L_00026002-03
1 82964U 24251WB  26037.47790509  .00000000  00000+0  00000-0 0  9991
2 82964  75.0000  12.0000 0000000   0.0000 192.0000 15.69614506    12
CTC2_L_00026002-04
1 82965U 22449JE  26037.47790509  .00000000  00000+0  00000-0 0  9999
2 82965  75.0000  12.0000 0000000   0.0000 282.0000 15.69614506    13
CTC2_L_00026003-01
1 82966U 22632YR  26037.47790509  .00000000  00000+0  00000-0 0  9994
2 82966  75.0000  24.0000 0000000   0.0000  24.0000 15.69614506    11
CTC2_L_00026003-02
1 82967U 22949VD  26037.47790509  .00000000  00000+0  00000-0 0  9996
2 82967  75.0000  24.0000 0000000   0.0000 114.0000 15.69614506    12
CTC2_L_00026003-03
1 82968U 23333IR  26037.47790509  .00000000  00000+0  00000-0 0  9995
2 82968  75.0000  24.0000 0000000   0.0000 204.0000 15.69614506    13
CTC2_L_00026003-04
1 82969U 25261LS  26037.47790509  .00000000  00000+0  00000-0 0  9998
2 82969  75.0000  24.0000 0000000   0.0000 294.0000 15.69614506    13
CTC2_L_00026004-01
1 82970U 26906FH  26037.47790509  .00000000  00000+0  00000-0 0  9997
2 82970  75.0000  36.0000 0000000   0.0000  36.0000 15.69614506    12
CTC2_L_00026004-02
1 82971U 24287ZF  26037.47790509  .00000000  00000+0  00000-0 0  9998
2 82971  75.0000  36.0000 0000000   0.0000 126.0000 15.69614506    13
CTC2_L_00026004-03
1 82972U 22235YJ  26037.47790509  .00000000  00000+0  00000-0 0  9990
2 82972  75.0000  36.0000 0000000   0.0000 216.0000 15.69614506    14
CTC2_L_00026004-04
1 82973U 23512S   26037.47790509  .00000000  00000+0  00000-0 0  9990
2 82973  75.0000  36.0000 0000000   0.0000 306.0000 15.69614506    15
CTC2_L_00026005-01
1 82974U 26509SC  26037.47790509  .00000000  00000+0  00000-0 0  9990
2 82974  75.0000  48.0000 0000000   0.0000  48.0000 15.69614506    12
CTC2_L_00026005-02
1 82975U 25454XT  26037.47790509  .00000000  00000+0  00000-0 0  9999
2 82975  75.0000  48.0000 0000000   0.0000 138.0000 15.69614506    13
CTC2_L_00026005-03
1 82976U 24407NW  26037.47790509  .00000000  00000+0  00000-0 0  9997
2 82976  75.0000  48.0000 0000000   0.0000 228.0000 15.69614506    14
CTC2_L_00026005-04
1 82977U 24016UW  26037.47790509  .00000000  00000+0  00000-0 0  9994
2 82977  75.0000  48.0000 0000000   0.0000 318.0000 15.69614506    15
CTC2_L_00026006-01
1 82978U 24185UU  26037.47790509  .00000000  00000+0  00000-0 0  9992
2 82978  75.0000  60.0000 0000000   0.0000  60.0000 15.69614506    14
CTC2_L_00026006-02
1 82979U 25119VV  26037.47790509  .00000000  00000+0  00000-0 0  9991
2 82979  75.0000  60.0000 0000000   0.0000 150.0000 15.69614506    15
CTC2_L_00026006-03
1 82980U 24063EY  26037.47790509  .00000000  00000+0  00000-0 0  9990
2 82980  75.0000  60.0000 0000000   0.0000 240.0000 15.69614506    17
CTC2_L_00026006-04
1 82981U 23769FU  26037.47790509  .00000000  00000+0  00000-0 0  9993
2 82981  75.0000  60.0000 0000000   0.0000 330.0000 15.69614506    18
CTC2_L_00026007-01
1 82982U 23440BY  26037.47790509  .00000000  00000+0  00000-0 0  9990
2 82982  75.0000  72.0000 0000000   0.0000  72.0000 15.69614506    15
CTC2_L_00026007-02
1 82983U 22024YH  26037.47790509  .00000000  00000+0  00000-0 0  9998
2 82983  75.0000  72.0000 0000000   0.0000 162.0000 15.69614506    16
CTC2_L_00026007-03
1 82984U 23237WW  26037.47790509  .00000000  00000+0  00000-0 0  9996
2 82984  75.0000  72.0000 0000000   0.0000 252.0000 15.69614506    17
CTC2_L_00026007-04
1 82985U 23029Q   26037.47790509  .00000000  00000+0  00000-0 0  9996
2 82985  75.0000  72.0000 0000000   0.0000 342.0000 15.69614506    18
CTC2_L_00026008-01
1 82986U 22692WT  26037.47790509  .00000000  00000+0  00000-0 0  9992
2 82986  75.0000  84.0000 0000000   0.0000  84.0000 15.69614506    15
CTC2_L_00026008-02
1 82987U 23434JQ  26037.47790509  .00000000  00000+0  00000-0 0  9998
2 82987  75.0000  84.0000 0000000   0.0000 174.0000 15.69614506    16
CTC2_L_00026008-03
1 82988U 23009FG  26037.47790509  .00000000  00000+0  00000-0 0  9997
2 82988  75.0000  84.0000 0000000   0.0000 264.0000 15.69614506    17
CTC2_L_00026008-04
1 82989U 25128AC  26037.47790509  .00000000  00000+0  00000-0 0  9992
2 82989  75.0000  84.0000 0000000   0.0000 354.0000 15.69614506    18
CTC2_L_00026009-01
1 82990U 24679BR  26037.47790509  .00000000  00000+0  00000-0 0  9994
2 82990  75.0000  96.0000 0000000   0.0000  96.0000 15.69614506    16
CTC2_L_00026009-02
1 82991U 23819JH  26037.47790509  .00000000  00000+0  00000-0 0  9990
2 82991  75.0000  96.0000 0000000   0.0000 186.0000 15.69614506    17
CTC2_L_00026009-03
1 82992U 25452U   26037.47790509  .00000000  00000+0  00000-0 0  9996
2 82992  75.0000  96.0000 0000000   0.0000 276.0000 15.69614506    18
CTC2_L_00026009-04
1 82993U 22149EZ  26037.47790509  .00000000  00000+0  00000-0 0  9997
2 82993  75.0000  96.0000 0000000   0.0000   6.0000 15.69614506    10
CTC2_L_00026010-01
1 82994U 22490R   26037.47790509  .00000000  00000+0  00000-0 0  9997
2 82994  75.0000 108.0000 0000000   0.0000 108.0000 15.69614506    18
CTC2_L_00026010-02
1 82995U 26272UA  26037.47790509  .00000000  00000+0  00000-0 0  9990
2 82995  75.0000 108.0000 0000000   0.0000 198.0000 15.69614506    18
CTC2_L_00026010-03
1 82996U 25417YS  26037.47790509  .00000000  00000+0  00000-0 0  9991
2 82996  75.0000 108.0000 0000000   0.0000 288.0000 15.69614506    19
CTC2_L_00026010-04
1 82997U 23939DB  26037.47790509  .00000000  00000+0  00000-0 0  9999
2 82997  75.0000 108.0000 0000000   0.0000  18.0000 15.69614506    11
CTC2_L_00026011-01
1 82998U 22559EJ  26037.47790509  .00000000  00000+0  00000-0 0  9997
2 82998  75.0000 120.0000 0000000   0.0000 120.0000 15.69614506    10
CTC2_L_00026011-02
1 82999U 24787GP  26037.47790509  .00000000  00000+0  00000-0 0  9993
2 82999  75.0000 120.0000 0000000   0.0000 210.0000 15.69614506    11
CTC2_L_00026011-03
1 83000U 22644SZ  26037.47790509  .00000000  00000+0  00000-0 0  9997
2 83000  75.0000 120.0000 0000000   0.0000 300.0000 15.69614506    15
CTC2_L_00026011-04
1 83001U 24769AG  26037.47790509  .00000000  00000+0  00000-0 0  9998
2 83001  75.0000 120.0000 0000000   0.0000  30.0000 15.69614506    16
CTC2_L_00026012-01
1 83002U 22171GG  26037.47790509  .00000000  00000+0  00000-0 0  9994
2 83002  75.0000 132.0000 0000000   0.0000 132.0000 15.69614506    13
CTC2_L_00026012-02
1 83003U 25403CA  26037.47790509  .00000000  00000+0  00000-0 0  9996
2 83003  75.0000 132.0000 0000000   0.0000 222.0000 15.69614506    14
CTC2_L_00026012-03
1 83004U 25369KY  26037.47790509  .00000000  00000+0  00000-0 0  9998
2 83004  75.0000 132.0000 0000000   0.0000 312.0000 15.69614506    15
CTC2_L_00026012-04
1 83005U 22734AA  26037.47790509  .00000000  00000+0  00000-0 0  9992
2 83005  75.0000 132.0000 0000000   0.0000  42.0000 15.69614506    16
CTC2_L_00026013-01
1 83006U 26494FG  26037.47790509  .00000000  00000+0  00000-0 0  9990
2 83006  75.0000 144.0000 0000000   0.0000 144.0000 15.69614506    13
CTC2_L_00026013-02
1 83007U 22038VH  26037.47790509  .00000000  00000+0  00000-0 0  9991
2 83007  75.0000 144.0000 0000000   0.0000 234.0000 15.69614506    14
CTC2_L_00026013-03
1 83008U 24436EJ  26037.47790509  .00000000  00000+0  00000-0 0  9996
2 83008  75.0000 144.0000 0000000   0.0000 324.0000 15.69614506    15
CTC2_L_00026013-04
1 83009U 26037Y   26037.47790509  .00000000  00000+0  00000-0 0  9996
2 83009  75.0000 144.0000 0000000   0.0000  54.0000 15.69614506    16
CTC2_L_00026014-01
1 83010U 25567PB  26037.47790509  .00000000  00000+0  00000-0 0  9995
2 83010  75.0000 156.0000 0000000   0.0000 156.0000 15.69614506    14
CTC2_L_00026014-02
1 83011U 26175PQ  26037.47790509  .00000000  00000+0  00000-0 0  9992
2 83011  75.0000 156.0000 0000000   0.0000 246.0000 15.69614506    15
CTC2_L_00026014-03
1 83012U 26201VJ  26037.47790509  .00000000  00000+0  00000-0 0  9993
2 83012  75.0000 156.0000 0000000   0.0000 336.0000 15.69614506    16
CTC2_L_00026014-04
1 83013U 24822TP  26037.47790509  .00000000  00000+0  00000-0 0  9991
2 83013  75.0000 156.0000 0000000   0.0000  66.0000 15.69614506    17
CTC2_L_00026015-01
1 83014U 25737LS  26037.47790509  .00000000  00000+0  00000-0 0  9998
2 83014  75.0000 168.0000 0000000   0.0000 168.0000 15.69614506    14
CTC2_L_00026015-02
1 83015U 26521RR  26037.47790509  .00000000  00000+0  00000-0 0  9991
2 83015  75.0000 168.0000 0000000   0.0000 258.0000 15.69614506    15
CTC2_L_00026015-03
1 83016U 26852CB  26037.47790509  .00000000  00000+0  00000-0 0  9999
2 83016  75.0000 168.0000 0000000   0.0000 348.0000 15.69614506    16
CTC2_L_00026015-04
1 83017U 23731LR  26037.47790509  .00000000  00000+0  00000-0 0  9993
2 83017  75.0000 168.0000 0000000   0.0000  78.0000 15.69614506    17
CTC2_L_00026016-01
1 83018U 23677BR  26037.47790509  .00000000  00000+0  00000-0 0  9993
2 83018  75.0000 180.0000 0000000   0.0000 180.0000 15.69614506    16
CTC2_L_00026016-02
1 83019U 25963ZJ  26037.47790509  .00000000  00000+0  00000-0 0  9994
2 83019  75.0000 180.0000 0000000   0.0000 270.0000 15.69614506    17
